## Space Data Response Object
https://www.space-track.org/basicspacedata/query/class/gp/OBJECT_NAME/~~STARLINK/format/json

```json
	{
		"CCSDS_OMM_VERS": "3.0",
		"COMMENT": "GENERATED VIA SPACE-TRACK.ORG API",
		"CREATION_DATE": "2020-10-01T07:56:08",
		"ORIGINATOR": "18 SPCS",
		"OBJECT_NAME": "STARLINK-31",
		"OBJECT_ID": "2019-029A",
		"CENTER_NAME": "EARTH",
		"REF_FRAME": "TEME",
		"TIME_SYSTEM": "UTC",
		"MEAN_ELEMENT_THEORY": "SGP4",
		"EPOCH": "2020-10-01T07:31:19.437888",
		"MEAN_MOTION": "16.46847225",
		"ECCENTRICITY": "0.00090410",
		"INCLINATION": "52.9736",
		"RA_OF_ASC_NODE": "36.3928",
		"ARG_OF_PERICENTER": "295.9879",
		"MEAN_ANOMALY": "160.3065",
		"EPHEMERIS_TYPE": "0",
		"CLASSIFICATION_TYPE": "U",
		"NORAD_CAT_ID": "44235",
		"ELEMENT_SET_NO": "999",
		"REV_AT_EPOCH": "7697",
		"BSTAR": "0.00018159000000",
		"MEAN_MOTION_DOT": "0.09808971",
		"MEAN_MOTION_DDOT": "0.0000126230000",
		"SEMIMAJOR_AXIS": "6525.788",
		"PERIOD": "87.439",
		"APOAPSIS": "153.553",
		"PERIAPSIS": "141.753",
		"OBJECT_TYPE": "PAYLOAD",
		"RCS_SIZE": "LARGE",
		"COUNTRY_CODE": "US",
		"LAUNCH_DATE": "2019-05-24",
		"SITE": "AFETR",
		"DECAY_DATE": "2020-10-01",
		"FILE": "2839167",
		"GP_ID": "162539263",
		"TLE_LINE0": "0 STARLINK-31",
		"TLE_LINE1": "1 44235U 19029A   20275.31341942  .09808971  12623-4  18159-3 0  9999",
		"TLE_LINE2": "2 44235  52.9736  36.3928 0009041 295.9879 160.3065 16.46847225 76971"
	}
```